[{"OBJECT_NAME":"STARLINK-35781","OBJECT_ID":"2025-299J","EPOCH":"2026-03-09T07:15:07.559712","MEAN_MOTION":15.2841751,"ECCENTRICITY":6.167e-5,"INCLINATION":42.9989,"RA_OF_ASC_NODE":171.4742,"ARG_OF_PERICENTER":246.1794,"MEAN_ANOMALY":113.8993,"EPHEMERIS_TYPE":0,"CLASSIFICATION_TYPE":"U","NORAD_CAT_ID":67110,"ELEMENT_SET_NO":999,"REV_AT_EPOCH":1305,"BSTAR":0.00090285523,"MEAN_MOTION_DOT":0.00025312,"MEAN_MOTION_DDOT":0},{"OBJECT_NAME":"COSMOS 1862","OBJECT_ID":"1987-055A","EPOCH":"2026-03-09T22:37:02.390592","MEAN_MOTION":15.30492139,"ECCENTRICITY":0.00097484,"INCLINATION":82.4856,"RA_OF_ASC_NODE":47.1862,"ARG_OF_PERICENTER":26.6325,"MEAN_ANOMALY":333.5414,"EPHEMERIS_TYPE":0,"CLASSIFICATION_TYPE":"U","NORAD_CAT_ID":18152,"ELEMENT_SET_NO":999,"REV_AT_EPOCH":8987,"BSTAR":0.00034125048,"MEAN_MOTION_DOT":0.00010107,"MEAN_MOTION_DDOT":0}]
